[{"OBJECT_NAME":"STARLINK-3090","OBJECT_ID":"2021-082C","EPOCH":"2026-03-09T23:20:36.632544","MEAN_MOTION":14.98331604,"ECCENTRICITY":0.0002969,"INCLINATION":69.9979,"RA_OF_ASC_NODE":293.6149,"ARG_OF_PERICENTER":269.9157,"MEAN_ANOMALY":90.1661,"EPHEMERIS_TYPE":0,"CLASSIFICATION_TYPE":"U","NORAD_CAT_ID":49132,"ELEMENT_SET_NO":999,"REV_AT_EPOCH":24602,"BSTAR":-3.614228e-5,"MEAN_MOTION_DOT":-5.24e-6,"MEAN_MOTION_DDOT":0},{"OBJECT_NAME":"TURKSAT-3USAT","OBJECT_ID":"2013-018C","EPOCH":"2026-03-09T19:52:59.932416","MEAN_MOTION":14.95734186,"ECCENTRICITY":0.00131837,"INCLINATION":97.7913,"RA_OF_ASC_NODE":160.1317,"ARG_OF_PERICENTER":74.0986,"MEAN_ANOMALY":286.1687,"EPHEMERIS_TYPE":0,"CLASSIFICATION_TYPE":"U","NORAD_CAT_ID":39152,"ELEMENT_SET_NO":999,"REV_AT_EPOCH":69623,"BSTAR":0.00039789997,"MEAN_MOTION_DOT":4.382e-5,"MEAN_MOTION_DDOT":0}]
